[{"OBJECT_NAME":"ORBCOMM FM06","OBJECT_ID":"1997-084G","EPOCH":"2026-03-09T15:06:31.906944","MEAN_MOTION":14.47270413,"ECCENTRICITY":0.0001937,"INCLINATION":45.0122,"RA_OF_ASC_NODE":171.8858,"ARG_OF_PERICENTER":196.1809,"MEAN_ANOMALY":301.713,"EPHEMERIS_TYPE":0,"CLASSIFICATION_TYPE":"U","NORAD_CAT_ID":25118,"ELEMENT_SET_NO":999,"REV_AT_EPOCH":47996,"BSTAR":0.00064878,"MEAN_MOTION_DOT":2.251e-5,"MEAN_MOTION_DDOT":0},{"OBJECT_NAME":"NOAA 16 DEB","OBJECT_ID":"2000-055AQ","EPOCH":"2026-03-09T13:45:11.294496","MEAN_MOTION":14.20454295,"ECCENTRICITY":0.0135884,"INCLINATION":99.212,"RA_OF_ASC_NODE":294.7279,"ARG_OF_PERICENTER":234.4043,"MEAN_ANOMALY":124.4409,"EPHEMERIS_TYPE":0,"CLASSIFICATION_TYPE":"U","NORAD_CAT_ID":41081,"ELEMENT_SET_NO":999,"REV_AT_EPOCH":53106,"BSTAR":0.00064105,"MEAN_MOTION_DOT":1.461e-5,"MEAN_MOTION_DDOT":0}]
